{"type":"Feature","properties":{"tzid":"Asia/Macau"},"geometry":{"type":"MultiPolygon","coordinates":[[[[113.547012,22.13802],[113.546966,22.138017],[113.54696,22.138016],[113.546957,22.13806],[113.546956,22.138082],[113.54696,22.138151],[113.546984,22.138152],[113.546981,22.138198],[113.546996,22.138199],[113.546999,22.138157],[113.54703,22.13816],[113.547033,22.13813],[113.54702,22.138129],[113.547022,22.138107],[113.547027,22.138044],[113.54701,22.138043],[113.547012,22.13802]]],[[[113.545013,22.141037],[113.54513,22.141042],[113.545209,22.141046],[113.545187,22.141056],[113.545168,22.141069],[113.545147,22.141091],[113.545134,22.141118],[113.545128,22.141147],[113.545125,22.141193],[113.545121,22.141193],[113.545,22.141187],[113.544999,22.141206],[113.544985,22.141454],[113.545035,22.141456],[113.545046,22.141456],[113.545057,22.141265],[113.545117,22.141268],[113.545121,22.141268],[113.545114,22.141399],[113.545093,22.141482],[113.545066,22.141541],[113.545047,22.141619],[113.544974,22.14295],[113.544963,22.14295],[113.544961,22.14295],[113.544912,22.142948],[113.544902,22.143141],[113.544902,22.143142],[113.544952,22.143145],[113.544964,22.143145],[113.544957,22.143264],[113.54496,22.143297],[113.54497,22.14333],[113.544987,22.14336],[113.54501,22.143386],[113.545038,22.143407],[113.54507,22.143423],[113.545104,22.143432],[113.54514,22.143435],[113.545346,22.143448],[113.545896,22.143473],[113.546005,22.143481],[113.546183,22.143496],[113.546249,22.143495],[113.546266,22.143493],[113.546314,22.143488],[113.546378,22.143473],[113.54644,22.143451],[113.546498,22.143422],[113.546553,22.143387],[113.546559,22.143382],[113.546602,22.143347],[113.546646,22.143301],[113.546684,22.14325],[113.546716,22.143196],[113.54674,22.143139],[113.546756,22.14308],[113.546765,22.143019],[113.546767,22.142957],[113.54676,22.142736],[113.546749,22.142395],[113.546588,22.142399],[113.546601,22.142457],[113.546615,22.142932],[113.546618,22.142988],[113.546612,22.143045],[113.546598,22.1431],[113.546574,22.143152],[113.546544,22.143201],[113.546505,22.143245],[113.546461,22.143283],[113.54641,22.143315],[113.546356,22.14334],[113.546298,22.143357],[113.546238,22.143366],[113.546217,22.143367],[113.546177,22.143367],[113.546076,22.143367],[113.545555,22.143344],[113.545556,22.143329],[113.545614,22.142265],[113.545623,22.142105],[113.545626,22.142051],[113.545653,22.141557],[113.545656,22.141502],[113.545685,22.140971],[113.545692,22.140854],[113.545694,22.140816],[113.545781,22.14082],[113.545799,22.140493],[113.545711,22.140489],[113.545714,22.140451],[113.54572,22.140334],[113.54575,22.139805],[113.545753,22.139751],[113.545773,22.139384],[113.545533,22.139372],[113.545536,22.139332],[113.545384,22.139325],[113.545361,22.13932],[113.54534,22.139311],[113.545323,22.139298],[113.545309,22.13928],[113.5453,22.13926],[113.545297,22.139239],[113.545351,22.13824],[113.545414,22.138189],[113.545668,22.138201],[113.545827,22.138208],[113.545963,22.138215],[113.546278,22.13823],[113.546277,22.138258],[113.546247,22.138807],[113.546368,22.138813],[113.546398,22.138254],[113.546403,22.138109],[113.5464,22.138053],[113.546396,22.137981],[113.546396,22.137979],[113.54637,22.137859],[113.54634,22.137795],[113.546301,22.137735],[113.546262,22.13769],[113.546255,22.137681],[113.546208,22.137638],[113.546156,22.1376],[113.5461,22.137568],[113.546069,22.137554],[113.546041,22.137542],[113.545978,22.137522],[113.545914,22.137509],[113.545849,22.137503],[113.545666,22.137494],[113.545614,22.137495],[113.545563,22.137502],[113.545514,22.137515],[113.545497,22.137522],[113.545467,22.137534],[113.545423,22.137558],[113.545382,22.137588],[113.545347,22.137622],[113.545316,22.137661],[113.545291,22.137702],[113.545272,22.137747],[113.545259,22.137793],[113.545254,22.137841],[113.545155,22.139646],[113.545164,22.139718],[113.545194,22.139807],[113.545201,22.13986],[113.545195,22.139972],[113.545184,22.139971],[113.545124,22.139969],[113.545123,22.139968],[113.545128,22.139882],[113.545112,22.139828],[113.545072,22.139826],[113.545064,22.139981],[113.545062,22.14002],[113.54512,22.140023],[113.545122,22.139987],[113.545183,22.13999],[113.545194,22.13999],[113.545189,22.140086],[113.545188,22.140117],[113.545195,22.140149],[113.545211,22.140177],[113.545234,22.140201],[113.545254,22.140214],[113.545171,22.14021],[113.545058,22.140205],[113.545058,22.140206],[113.545036,22.140205],[113.544913,22.140199],[113.544807,22.140194],[113.544787,22.140193],[113.544777,22.140193],[113.544774,22.140253],[113.544746,22.140252],[113.544746,22.140242],[113.544706,22.14024],[113.544706,22.14023],[113.544684,22.140229],[113.544686,22.140188],[113.54425,22.140168],[113.544245,22.140262],[113.544226,22.140608],[113.54421,22.140903],[113.544205,22.140997],[113.544641,22.141018],[113.544643,22.140977],[113.544665,22.140978],[113.544666,22.140969],[113.544706,22.140971],[113.544707,22.140961],[113.544735,22.140962],[113.544732,22.141022],[113.544742,22.141023],[113.544763,22.141024],[113.544987,22.141034],[113.545013,22.141036],[113.545013,22.141037]]],[[[113.547104,22.136082],[113.547274,22.136092],[113.547414,22.1361],[113.547397,22.135816],[113.547382,22.135576],[113.547346,22.134425],[113.547324,22.133704],[113.547308,22.133219],[113.547278,22.132628],[113.547225,22.131739],[113.547145,22.130415],[113.547079,22.129326],[113.546963,22.127403],[113.546955,22.127269],[113.546708,22.123169],[113.546662,22.122414],[113.54664,22.122041],[113.546613,22.121594],[113.54659,22.121219],[113.546563,22.120772],[113.54656,22.12072],[113.546555,22.120634],[113.546555,22.120619],[113.545666,22.120599],[113.541101,22.123502],[113.540756,22.124058],[113.540173,22.135452],[113.540405,22.135683],[113.547104,22.136082]]],[[[113.535639,22.202306],[113.535494,22.204848],[113.535389,22.206694],[113.534653,22.207367],[113.533969,22.209644],[113.533083,22.212306],[113.534944,22.213525],[113.535292,22.213492],[113.535439,22.213475],[113.535706,22.213558],[113.536333,22.213636],[113.538142,22.213642],[113.5409,22.213033],[113.541181,22.213022],[113.541331,22.213086],[113.541533,22.213325],[113.541717,22.213233],[113.541956,22.213672],[113.542014,22.213694],[113.542408,22.214286],[113.542464,22.214433],[113.543392,22.216314],[113.544356,22.216953],[113.545189,22.216922],[113.545478,22.216811],[113.546506,22.216797],[113.546567,22.216783],[113.547039,22.216781],[113.547628,22.216558],[113.547717,22.216658],[113.548336,22.216733],[113.548437,22.216694],[113.54854,22.216661],[113.548646,22.216636],[113.548753,22.216617],[113.548864,22.216605],[113.548976,22.2166],[113.549088,22.216603],[113.5492,22.216614],[113.549316,22.216632],[113.549431,22.216658],[113.549543,22.216692],[113.549653,22.216733],[113.549745,22.216775],[113.549835,22.216823],[113.549921,22.216876],[113.550003,22.216933],[113.550847,22.217036],[113.550759,22.216104],[113.550973,22.216025],[113.551616,22.215788],[113.552028,22.216],[113.553873,22.21532],[113.562278,22.212222],[113.568972,22.209083],[113.571056,22.204028],[113.571499,22.204029],[113.580987,22.204053],[113.60525,22.204111],[113.630139,22.165639],[113.630139,22.108861],[113.610222,22.076667],[113.570972,22.076667],[113.570972,22.098833],[113.549639,22.108861],[113.548306,22.115583],[113.549267,22.138555],[113.54927,22.13863],[113.54932,22.139835],[113.549326,22.139969],[113.549326,22.139974],[113.549332,22.140108],[113.549556,22.145361],[113.54525,22.150778],[113.539528,22.157],[113.532139,22.172083],[113.531972,22.173306],[113.530583,22.175444],[113.529417,22.177],[113.528167,22.182167],[113.528235,22.182981],[113.528361,22.1845],[113.529167,22.186556],[113.530194,22.187917],[113.529222,22.188528],[113.533611,22.1945],[113.534198,22.196759],[113.535639,22.202306]]]]}}